[{"OBJECT_NAME":"YAOGAN-30 04A","OBJECT_ID":"2017-085A","EPOCH":"2026-03-10T00:12:03.633696","MEAN_MOTION":15.02145245,"ECCENTRICITY":0.00047902,"INCLINATION":34.9971,"RA_OF_ASC_NODE":34.3088,"ARG_OF_PERICENTER":351.1621,"MEAN_ANOMALY":8.9003,"EPHEMERIS_TYPE":0,"CLASSIFICATION_TYPE":"U","NORAD_CAT_ID":43081,"ELEMENT_SET_NO":999,"REV_AT_EPOCH":44779,"BSTAR":0.00033587992,"MEAN_MOTION_DOT":4.482e-5,"MEAN_MOTION_DDOT":0},{"OBJECT_NAME":"STARLINK-36212","OBJECT_ID":"2025-304AA","EPOCH":"2026-03-09T16:41:27.859776","MEAN_MOTION":15.00195424,"ECCENTRICITY":0.00049779,"INCLINATION":70.0014,"RA_OF_ASC_NODE":174.5126,"ARG_OF_PERICENTER":278.3638,"MEAN_ANOMALY":81.6957,"EPHEMERIS_TYPE":0,"CLASSIFICATION_TYPE":"U","NORAD_CAT_ID":67216,"ELEMENT_SET_NO":999,"REV_AT_EPOCH":1388,"BSTAR":0.057619822,"MEAN_MOTION_DOT":0.00772353,"MEAN_MOTION_DDOT":0}]
